{
  "type": "FeatureCollection",
  "features": [
    {
      "type": "Feature",
      "properties": {
        "id": "ebbetts-pass",
        "name": "Ebbetts Pass Corridor",
        "note": "Hand-drawn coverage polygon (replaces the coarse square bbox). West edge reaches San Andreas; south holds at Angels Camp / New Melones; east meets Hwy 108 SE of Bear Valley (Pinecrest/Dardanelle area); north caps just above Bear Valley up the Hwy 4 corridor, the NE edge cutting SE to the 108. Exterior ring is CCW per RFC 7946. Coordinates are [lng, lat]."
      },
      "geometry": {
        "type": "Polygon",
        "coordinates": [
          [
            [
              -120.6137,
              38.024
            ],
            [
              -120.4644,
              37.9139
            ],
            [
              -120.3278,
              37.936
            ],
            [
              -120.141,
              38.0306
            ],
            [
              -119.9349,
              38.2406
            ],
            [
              -119.9565,
              38.4306
            ],
            [
              -120.0406,
              38.5294
            ],
            [
              -120.2874,
              38.5535
            ],
            [
              -120.68,
              38.2
            ],
            [
              -120.6137,
              38.024
            ]
          ]
        ]
      }
    }
  ]
}
